GLOBALSTAR M057         
1 25943U 99058A   24335.56438959 -.00000025  00000+0  61941-3 0  9991
2 25943  51.9959 191.8863 0002400 359.4643   0.6204 12.24803776142592
GLOBALSTAR M059         
1 25944U 99058B   24335.25357059 -.00000005  00000+0  10007-2 0  9993
2 25944  52.0046  25.3484 0000328 171.0168 219.1915 11.99971619550164
GLOBALSTAR M056         
1 25945U 99058C   24335.30232699 -.00000120  00000+0 -38122-3 0  9990
2 25945  51.9990  32.2794 0001342 146.5898 253.6647 12.04776862138657
GLOBALSTAR M031         
1 25946U 99058D   24335.60239735 -.00000133  00000+0 -43329-3 0  9991
2 25946  51.9972 295.6825 0001446 113.6609  57.3546 12.16022830140627
GLOBALSTAR M039         
1 25961U 99062A   24335.50073321 -.00000035  00000+0  38191-3 0  9990
2 25961  51.9818 153.8697 0001505 263.7663  96.3032 12.62312557155121
GLOBALSTAR M034         
1 25962U 99062B   24335.79665199 -.00000041  00000+0  63156-3 0  9998
2 25962  51.9836 167.0863 0014729  31.1320 342.2520 11.79436717114967
GLOBALSTAR M029         
1 25963U 99062C   24335.61498182 -.00000048  00000+0  46918-3 0  9990
2 25963  51.9810 272.5788 0003144  78.2411  92.4533 11.99887975145285
GLOBALSTAR M061         
1 25964U 99062D   24335.81264130 -.00000061  00000+0  32313-3 0  9996
2 25964  51.9820 348.4476 0005953 313.0780 218.7235 11.76768374 98110
